GLOBALSTAR M084         
1 38040U 11080A   25152.57554154 -.00000088  00000+0  87673-4 0  9997
2 38040  52.0003  95.9996 0000731  28.5179 142.5740 12.62266431620696
GLOBALSTAR M080         
1 38041U 11080B   25152.83173014 -.00000092  00000+0  67866-4 0  9996
2 38041  52.0055  96.8057 0000698  89.0599 296.6190 12.62263252620993
GLOBALSTAR M082         
1 38042U 11080C   25152.48301380 -.00000082  00000+0  11955-3 0  9993
2 38042  52.0092  53.3271 0000830  95.0234  75.6868 12.62266315621511
GLOBALSTAR M092         
1 38043U 11080D   25152.44638406 -.00000106  00000+0 -14814-4 0  9998
2 38043  52.0066 143.8148 0000229  42.3450  81.9351 12.62264354619962
GLOBALSTAR M090         
1 38044U 11080E   25152.43034273 -.00000067  00000+0  20557-3 0  9995
2 38044  52.0138  47.3188 0000659  81.5252  90.3607 12.62273328621622
GLOBALSTAR M086         
1 38045U 11080F   25152.45769336 -.00000088  00000+0  85830-4 0  9992
2 38045  51.9917  47.7808 0000590 328.7527 207.9464 12.62271204621576
GLOBALSTAR M097         
1 39072U 13005A   25152.60375781 -.00000086  00000+0  97142-4 0  9993
2 39072  52.0060 321.8684 0000648 115.2913 244.8021 12.62272332568840
GLOBALSTAR M093         
1 39073U 13005B   25152.49813806 -.00000081  00000+0  12918-3 0  9998
2 39073  51.9823 315.5175 0000709 120.2881 239.8056 12.62265017568786
